NORAD_CAT_ID,OBJECT_NAME,OBJECT_TYPE,EPOCH,MEAN_MOTION,ECCENTRICITY,INCLINATION,RA_OF_ASC_NODE,ARG_OF_PERICENTER,MEAN_ANOMALY,BSTAR,MEAN_MOTION_DOT,MEAN_MOTION_DDOT,TLE_LINE0,TLE_LINE1,TLE_LINE2,SEMIMAJOR_AXIS,PERIOD,APOGEE,PERIGEE,DECAYED
49420.0,STARLINK-3110,PAYLOAD,2022-03-13 14:00:01,15.08826604,0.0002009,53.2141,290.3151,48.6371,123.0281,0.00049725,7.632e-05,0.0,0 STARLINK-3110,1 49420U 21104N   22072.58334491  .00007632  00000-0  49725-3 0  9995,2 49420  53.2141 290.3151 0002009  48.6371 123.0281 15.08826604  3615,6917.920999999999,95.438,541.1759999999998,538.3969999999998,0.0
49420.0,STARLINK-3110,PAYLOAD,2022-03-13 20:00:01,15.08837276,0.0002115,53.214,289.1943,44.1466,46.2037,-0.003869,-0.00061337,0.0,0 STARLINK-3110,1 49420U 21104N   22072.83334491 -.00061337  00000-0 -38690-2 0  9995,2 49420  53.2140 289.1943 0002115  44.1466  46.2037 15.08837276 19791,6917.889,95.438,541.217,538.2909999999998,0.0
49420.0,STARLINK-3110,PAYLOAD,2022-03-13 22:00:01,15.08808664,0.000215,53.214,288.8205,42.8181,140.4961,-0.00090328,-0.00014623,0.0,0 STARLINK-3110,1 49420U 21104N   22072.91668981 -.00014623  00000-0 -90328-3 0  9991,2 49420  53.2140 288.8205 0002150  42.8181 140.4961 15.08808664  3599,6917.976,95.44,541.3290000000002,538.354,0.0
49420.0,STARLINK-3110,PAYLOAD,2022-03-14 04:00:00,15.08818912,0.0002107,53.2136,287.6978,40.76,61.1609,-1.3723e-06,-3.1e-06,0.0,0 STARLINK-3110,1 49420U 21104N   22073.16667824 -.00000310  00000-0 -13723-5 0  9998,2 49420  53.2136 287.6978 0002107  40.7600  61.1609 15.08818912 19843,6917.945,95.439,541.2669999999998,538.352,0.0
49420.0,STARLINK-3110,PAYLOAD,2022-03-14 14:00:01,15.08828087,0.0001929,53.2139,285.826,47.8446,158.6096,0.0019568,0.00030982,0.0,0 STARLINK-3110,1 49420U 21104N   22073.58335648  .00030982  00000-0  19568-2 0  9996,2 49420  53.2139 285.8260 0001929  47.8446 158.6096 15.08828087  3587,6917.917,95.438,541.116,538.447,0.0
49420.0,STARLINK-3110,PAYLOAD,2022-03-14 20:00:01,15.08847854,0.0002072,53.2136,284.7051,43.7898,81.2954,-0.00045837,-7.578e-05,0.0,0 STARLINK-3110,1 49420U 21104N   22073.83334491 -.00007578  00000-0 -45837-3 0  9995,2 49420  53.2136 284.7051 0002072  43.7898  81.2954 15.08847854 19940,6917.856,95.437,541.155,538.288,0.0
49420.0,STARLINK-3110,PAYLOAD,2022-03-15 02:00:01,15.08827762,0.0002115,53.2145,283.583,40.9724,2.799,0.0021075,0.00033401,0.0,0 STARLINK-3110,1 49420U 21104N   22074.08334491  .00033401  00000-0  21075-2 0  9992,2 49420  53.2145 283.5830 0002115  40.9724   2.7990 15.08827762  3584,6917.918000000002,95.438,541.246,538.32,0.0
49420.0,STARLINK-3110,PAYLOAD,2022-03-15 22:00:00,15.08800179,0.0002039,53.2154,279.8422,41.8505,210.8848,0.0011479,0.00018008,0.0,0 STARLINK-3110,1 49420U 21104N   22074.91667824  .00018008  00000-0  11479-2 0  9996,2 49420  53.2154 279.8422 0002039  41.8505 210.8848 15.08800179 20105,6918.002,95.44,541.278,538.457,0.0
49420.0,STARLINK-3110,PAYLOAD,2022-03-16 14:00:01,15.08814234,0.000191,53.2149,276.8477,49.6071,226.2495,0.0034339,0.00054749,0.0,0 STARLINK-3110,1 49420U 21104N   22075.58334491  .00054749  00000-0  34339-2 0  9993,2 49420  53.2149 276.8477 0001910  49.6071 226.2495 15.08814234  3586,6917.959,95.439,541.145,538.503,0.0
49420.0,STARLINK-3110,PAYLOAD,2022-03-16 20:00:01,15.08844397,0.0002116,53.2147,275.7269,46.7741,147.7644,-7.218699999999999e-05,-1.437e-05,0.0,0 STARLINK-3110,1 49420U 21104N   22075.83334491 -.00001437  00000-0 -72187-4 0  9994,2 49420  53.2147 275.7269 0002116  46.7741 147.7644 15.08844397  3588,6917.8669999999975,95.437,541.196,538.268,0.0
49420.0,STARLINK-3110,PAYLOAD,2022-03-17 06:00:00,15.08863873,0.0002045,53.2143,273.8552,47.4476,251.5927,-0.0016326,-0.00026195,0.0,0 STARLINK-3110,1 49420U 21104N   22076.25001157 -.00026195  00000-0 -16326-2 0  9990,2 49420  53.2143 273.8552 0002045  47.4476 251.5927 15.08863873 20309,6917.807,95.436,541.087,538.258,0.0
49420.0,STARLINK-3110,PAYLOAD,2022-03-17 14:00:01,15.08864945,0.0002019,53.2144,272.3582,51.9532,258.6982,0.00015502,2.181e-05,0.0,0 STARLINK-3110,1 49420U 21104N   22076.58334491  .00002181  00000-0  15502-3 0  9999,2 49420  53.2144 272.3582 0002019  51.9532 258.6982 15.08864945  3593,6917.804,95.436,541.066,538.2719999999998,0.0
49420.0,STARLINK-3110,PAYLOAD,2022-03-17 22:00:00,15.08847506,0.0002204,53.2144,270.8634,46.5611,275.7204,0.0018423,0.0002916,0.0,0 STARLINK-3110,1 49420U 21104N   22076.91667824  .00029160  00000-0  18423-2 0  9995,2 49420  53.2144 270.8634 0002204  46.5611 275.7204 15.08847506  3599,6917.857,95.437,541.247,538.198,0.0
49420.0,STARLINK-3110,PAYLOAD,2022-03-18 08:00:01,15.08839439,0.0001977,53.2143,268.9907,48.3631,18.4485,0.00041047,6.25e-05,0.0,0 STARLINK-3110,1 49420U 21104N   22077.33334491  .00006250  00000-0  41047-3 0  9997,2 49420  53.2143 268.9907 0001977  48.3631  18.4485 15.08839439 20472,6917.882,95.438,541.115,538.379,0.0
49420.0,STARLINK-3110,PAYLOAD,2022-03-18 14:00:01,15.08853831,0.0002014,53.2145,267.8684,50.2031,295.3013,-0.00016083,-2.848e-05,0.0,0 STARLINK-3110,1 49420U 21104N   22077.58334491 -.00002848  00000-0 -16083-3 0  9997,2 49420  53.2145 267.8684 0002014  50.2031 295.3013 15.08853831  3615,6917.8380000000025,95.437,541.096,538.31,0.0
49420.0,STARLINK-3110,PAYLOAD,2022-03-18 22:00:00,15.08829518,0.0002202,53.2146,266.3736,45.1166,311.9989,0.0021076,0.00033405,0.0,0 STARLINK-3110,1 49420U 21104N   22077.91667824  .00033405  00000-0  21076-2 0  9991,2 49420  53.2146 266.3736 0002202  45.1166 311.9989 15.08829518  3611,6917.9119999999975,95.438,541.3009999999998,538.254,0.0
49420.0,STARLINK-3110,PAYLOAD,2022-03-19 14:00:01,15.08842442,0.0002023,53.215,263.3788,48.2938,332.0111,-0.00059288,-9.712e-05,0.0,0 STARLINK-3110,1 49420U 21104N   22078.58334491 -.00009712  00000-0 -59288-3 0  9999,2 49420  53.2150 263.3788 0002023  48.2938 332.0111 15.08842442 20668,6917.873000000001,95.437,541.137,538.3380000000002,0.0
49420.0,STARLINK-3110,PAYLOAD,2022-03-19 22:00:01,15.08813039,0.0002209,53.2152,261.8839,43.9395,348.0249,0.0026113,0.00041486,0.0,0 STARLINK-3110,1 49420U 21104N   22078.91668981  .00041486  00000-0  26113-2 0  9992,2 49420  53.2152 261.8839 0002209  43.9395 348.0249 15.08813039  3610,6917.9630000000025,95.439,541.356,538.3,0.0
49420.0,STARLINK-3110,PAYLOAD,2022-03-20 14:00:01,15.088594699999998,0.0002097,53.2157,258.8893,48.8315,6.2435,-0.00095506,-0.00015464,0.0,0 STARLINK-3110,1 49420U 21104N   22079.58334491 -.00015464  00000-0 -95506-3 0  9994,2 49420  53.2157 258.8893 0002097  48.8315   6.2435 15.08859470  3598,6917.821,95.436,541.137,538.235,0.0
49420.0,STARLINK-3110,PAYLOAD,2022-03-20 22:00:01,15.08830674,0.0002242,53.2158,257.3943,43.9386,22.8181,0.002764,0.00043965,0.0,0 STARLINK-3110,1 49420U 21104N   22079.91668981  .00043965  00000-0  27640-2 0  9993,2 49420  53.2158 257.3943 0002242  43.9386  22.8181 15.08830674  3604,6917.909000000002,95.438,541.325,538.2230000000002,0.0
49420.0,STARLINK-3110,PAYLOAD,2022-03-21 14:00:01,15.08851592,0.0002039,53.2162,254.4,47.3996,42.4922,-0.0012220999999999,-0.00019692,0.0,0 STARLINK-3110,1 49420U 21104N   22080.58334491 -.00019692  00000-0 -12221-2 0  9995,2 49420  53.2162 254.4000 0002039  47.3996  42.4922 15.08851592  3591,6917.845,95.437,541.121,538.299,0.0
49420.0,STARLINK-3110,PAYLOAD,2022-03-21 22:00:00,15.08818226,0.0002167,53.2161,252.905,42.2708,59.2246,0.0027765,0.00044151,0.0,0 STARLINK-3110,1 49420U 21104N   22080.91667824  .00044151  00000-0  27765-2 0  9996,2 49420  53.2161 252.9050 0002167  42.2708  59.2246 15.08818226 21014,6917.946999999999,95.439,541.311,538.313,0.0
49420.0,STARLINK-3110,PAYLOAD,2022-03-22 06:00:00,15.08831228,0.0001924,53.2162,251.407,45.1342,67.9555,-0.001446,-0.00023222,0.0,0 STARLINK-3110,1 49420U 21104N   22081.25001157 -.00023222  00000-0 -14460-2 0  9991,2 49420  53.2162 251.4070 0001924  45.1342  67.9555 15.08831228 21068,6917.906999999997,95.438,541.1030000000002,538.441,0.0
49420.0,STARLINK-3110,PAYLOAD,2022-03-22 14:00:01,15.08837071,0.0001943,53.2163,249.911,45.8137,78.8484,-0.0014895,-0.00023914,0.0,0 STARLINK-3110,1 49420U 21104N   22081.58334491 -.00023914  00000-0 -14895-2 0  9997,2 49420  53.2163 249.9110 0001943  45.8137  78.8484 15.08837071  3611,6917.889,95.438,541.0980000000002,538.41,0.0
49420.0,STARLINK-3110,PAYLOAD,2022-03-22 20:00:01,15.08810639,0.0002093,53.2162,248.79,42.5285,0.8236,0.0014237,0.00022425,0.0,0 STARLINK-3110,1 49420U 21104N   22081.83334491  .00022425  00000-0  14237-2 0  9999,2 49420  53.2162 248.7900 0002093  42.5285   0.8236 15.08810639 21159,6917.97,95.439,541.283,538.387,0.0
49420.0,STARLINK-3110,PAYLOAD,2022-03-22 22:00:01,15.08801457,0.0002087,53.2159,248.4159,40.8844,95.4261,0.0030279,0.0004818,0.0,0 STARLINK-3110,1 49420U 21104N   22081.91668981  .00048180  00000-0  30279-2 0  9992,2 49420  53.2159 248.4159 0002087  40.8844  95.4261 15.08801457  3609,6917.998000000001,95.44,541.307,538.419,0.0
49420.0,STARLINK-3110,PAYLOAD,2022-03-23 14:00:01,15.08852928,0.0001954,53.2159,245.4223,46.8239,112.5769,-0.0015279,-0.00024531,0.0,0 STARLINK-3110,1 49420U 21104N   22082.58334491 -.00024531  00000-0 -15279-2 0  9991,2 49420  53.2159 245.4223 0001954  46.8239 112.5769 15.08852928  3618,6917.840999999999,95.437,541.058,538.354,0.0
49420.0,STARLINK-3110,PAYLOAD,2022-03-23 22:00:00,15.08820782,0.0002096,53.2154,243.9271,42.0735,128.9306,0.0029133,0.00046359,0.0,0 STARLINK-3110,1 49420U 21104N   22082.91667824  .00046359  00000-0  29133-2 0  9991,2 49420  53.2154 243.9271 0002096  42.0735 128.9306 15.08820782 21314,6917.939,95.439,541.254,538.354,0.0
49420.0,STARLINK-3110,PAYLOAD,2022-03-24 14:00:01,15.08875716,0.0001978,53.2153,240.9335,47.1872,147.0113,-0.0026618,-0.00042444,0.0,0 STARLINK-3110,1 49420U 21104N   22083.58334491 -.00042444  00000-0 -26618-2 0  9994,2 49420  53.2153 240.9335 0001978  47.1872 147.0113 15.08875716  3581,6917.771,95.435,541.005,538.268,0.0
